{
  "type": "FeatureCollection",
  "name": "senegal_regions",
  "crs": {
    "type": "name",
    "properties": {
      "name": "urn:ogc:def:crs:OGC:1.3:CRS84"
    }
  },
  "features": [
    {
      "type": "Feature",
      "properties": {
        "NAME_1": "Dakar",
        "nom_region": "Dakar",
        "region": "Dakar"
      },
      "geometry": {
        "type": "Polygon",
        "coordinates": [
          [
            [
              -17.55,
              14.6
            ],
            [
              -17.14,
              14.6
            ],
            [
              -17.14,
              14.85
            ],
            [
              -17.55,
              14.85
            ],
            [
              -17.55,
              14.6
            ]
          ]
        ]
      }
    },
    {
      "type": "Feature",
      "properties": {
        "NAME_1": "Thiès",
        "nom_region": "Thiès",
        "region": "Thiès"
      },
      "geometry": {
        "type": "Polygon",
        "coordinates": [
          [
            [
              -17.14,
              14.55
            ],
            [
              -16.55,
              14.55
            ],
            [
              -16.55,
              15.05
            ],
            [
              -17.14,
              15.05
            ],
            [
              -17.14,
              14.55
            ]
          ]
        ]
      }
    },
    {
      "type": "Feature",
      "properties": {
        "NAME_1": "Diourbel",
        "nom_region": "Diourbel",
        "region": "Diourbel"
      },
      "geometry": {
        "type": "Polygon",
        "coordinates": [
          [
            [
              -16.55,
              14.55
            ],
            [
              -15.85,
              14.55
            ],
            [
              -15.85,
              15.1
            ],
            [
              -16.55,
              15.1
            ],
            [
              -16.55,
              14.55
            ]
          ]
        ]
      }
    },
    {
      "type": "Feature",
      "properties": {
        "NAME_1": "Fatick",
        "nom_region": "Fatick",
        "region": "Fatick"
      },
      "geometry": {
        "type": "Polygon",
        "coordinates": [
          [
            [
              -16.8,
              13.8
            ],
            [
              -15.7,
              13.8
            ],
            [
              -15.7,
              14.55
            ],
            [
              -16.8,
              14.55
            ],
            [
              -16.8,
              13.8
            ]
          ]
        ]
      }
    },
    {
      "type": "Feature",
      "properties": {
        "NAME_1": "Kaolack",
        "nom_region": "Kaolack",
        "region": "Kaolack"
      },
      "geometry": {
        "type": "Polygon",
        "coordinates": [
          [
            [
              -16.3,
              13.65
            ],
            [
              -15.4,
              13.65
            ],
            [
              -15.4,
              14.3
            ],
            [
              -16.3,
              14.3
            ],
            [
              -16.3,
              13.65
            ]
          ]
        ]
      }
    },
    {
      "type": "Feature",
      "properties": {
        "NAME_1": "Kaffrine",
        "nom_region": "Kaffrine",
        "region": "Kaffrine"
      },
      "geometry": {
        "type": "Polygon",
        "coordinates": [
          [
            [
              -15.9,
              13.4
            ],
            [
              -14.65,
              13.4
            ],
            [
              -14.65,
              14.15
            ],
            [
              -15.9,
              14.15
            ],
            [
              -15.9,
              13.4
            ]
          ]
        ]
      }
    },
    {
      "type": "Feature",
      "properties": {
        "NAME_1": "Louga",
        "nom_region": "Louga",
        "region": "Louga"
      },
      "geometry": {
        "type": "Polygon",
        "coordinates": [
          [
            [
              -16.7,
              14.85
            ],
            [
              -14.8,
              14.85
            ],
            [
              -14.8,
              16.0
            ],
            [
              -16.7,
              16.0
            ],
            [
              -16.7,
              14.85
            ]
          ]
        ]
      }
    },
    {
      "type": "Feature",
      "properties": {
        "NAME_1": "Saint-Louis",
        "nom_region": "Saint-Louis",
        "region": "Saint-Louis"
      },
      "geometry": {
        "type": "Polygon",
        "coordinates": [
          [
            [
              -16.7,
              15.65
            ],
            [
              -14.5,
              15.65
            ],
            [
              -14.5,
              16.7
            ],
            [
              -16.7,
              16.7
            ],
            [
              -16.7,
              15.65
            ]
          ]
        ]
      }
    },
    {
      "type": "Feature",
      "properties": {
        "NAME_1": "Matam",
        "nom_region": "Matam",
        "region": "Matam"
      },
      "geometry": {
        "type": "Polygon",
        "coordinates": [
          [
            [
              -14.5,
              14.65
            ],
            [
              -12.3,
              14.65
            ],
            [
              -12.3,
              16.0
            ],
            [
              -14.5,
              16.0
            ],
            [
              -14.5,
              14.65
            ]
          ]
        ]
      }
    },
    {
      "type": "Feature",
      "properties": {
        "NAME_1": "Tambacounda",
        "nom_region": "Tambacounda",
        "region": "Tambacounda"
      },
      "geometry": {
        "type": "Polygon",
        "coordinates": [
          [
            [
              -14.65,
              12.3
            ],
            [
              -11.65,
              12.3
            ],
            [
              -11.65,
              14.15
            ],
            [
              -14.65,
              14.15
            ],
            [
              -14.65,
              12.3
            ]
          ]
        ]
      }
    },
    {
      "type": "Feature",
      "properties": {
        "NAME_1": "Kédougou",
        "nom_region": "Kédougou",
        "region": "Kédougou"
      },
      "geometry": {
        "type": "Polygon",
        "coordinates": [
          [
            [
              -12.7,
              11.9
            ],
            [
              -11.3,
              11.9
            ],
            [
              -11.3,
              13.0
            ],
            [
              -12.7,
              13.0
            ],
            [
              -12.7,
              11.9
            ]
          ]
        ]
      }
    },
    {
      "type": "Feature",
      "properties": {
        "NAME_1": "Kolda",
        "nom_region": "Kolda",
        "region": "Kolda"
      },
      "geometry": {
        "type": "Polygon",
        "coordinates": [
          [
            [
              -15.6,
              12.0
            ],
            [
              -13.4,
              12.0
            ],
            [
              -13.4,
              13.2
            ],
            [
              -15.6,
              13.2
            ],
            [
              -15.6,
              12.0
            ]
          ]
        ]
      }
    },
    {
      "type": "Feature",
      "properties": {
        "NAME_1": "Sédhiou",
        "nom_region": "Sédhiou",
        "region": "Sédhiou"
      },
      "geometry": {
        "type": "Polygon",
        "coordinates": [
          [
            [
              -15.9,
              12.35
            ],
            [
              -14.7,
              12.35
            ],
            [
              -14.7,
              13.15
            ],
            [
              -15.9,
              13.15
            ],
            [
              -15.9,
              12.35
            ]
          ]
        ]
      }
    },
    {
      "type": "Feature",
      "properties": {
        "NAME_1": "Ziguinchor",
        "nom_region": "Ziguinchor",
        "region": "Ziguinchor"
      },
      "geometry": {
        "type": "Polygon",
        "coordinates": [
          [
            [
              -16.8,
              12.2
            ],
            [
              -15.4,
              12.2
            ],
            [
              -15.4,
              13.0
            ],
            [
              -16.8,
              13.0
            ],
            [
              -16.8,
              12.2
            ]
          ]
        ]
      }
    }
  ]
}